<?xml version="1.0" encoding="UTF-8"?>
<ndm xmlns:xsi="http://www.w3.org/2001/XMLSchema-instance" xsi:noNamespaceSchemaLocation="https://sanaregistry.org/r/ndmxml_unqualified/ndmxml-2.0.0-master-2.0.xsd">
<omm id="CCSDS_OMM_VERS" version="2.0">
<header><CREATION_DATE/><ORIGINATOR/></header><body><segment><metadata><OBJECT_NAME>KUIPER-00071</OBJECT_NAME><OBJECT_ID>2025-151C</OBJECT_ID><CENTER_NAME>EARTH</CENTER_NAME><REF_FRAME>TEME</REF_FRAME><TIME_SYSTEM>UTC</TIME_SYSTEM><MEAN_ELEMENT_THEORY>SGP4</MEAN_ELEMENT_THEORY></metadata><data><meanElements><EPOCH>2025-10-05T04:51:16.649856</EPOCH><MEAN_MOTION>14.79951777</MEAN_MOTION><ECCENTRICITY>.0008313</ECCENTRICITY><INCLINATION>51.8982</INCLINATION><RA_OF_ASC_NODE>270.6356</RA_OF_ASC_NODE><ARG_OF_PERICENTER>77.1536</ARG_OF_PERICENTER><MEAN_ANOMALY>283.0355</MEAN_ANOMALY></meanElements><tleParameters><EPHEMERIS_TYPE>0</EPHEMERIS_TYPE><CLASSIFICATION_TYPE>U</CLASSIFICATION_TYPE><NORAD_CAT_ID>64818</NORAD_CAT_ID><ELEMENT_SET_NO>999</ELEMENT_SET_NO><REV_AT_EPOCH>1224</REV_AT_EPOCH><BSTAR>.79548E-3</BSTAR><MEAN_MOTION_DOT>.5852E-4</MEAN_MOTION_DOT><MEAN_MOTION_DDOT>0</MEAN_MOTION_DDOT></tleParameters></data></segment></body></omm>
<omm id="CCSDS_OMM_VERS" version="2.0">
<header><CREATION_DATE/><ORIGINATOR/></header><body><segment><metadata><OBJECT_NAME>KUIPER-00072</OBJECT_NAME><OBJECT_ID>2025-151D</OBJECT_ID><CENTER_NAME>EARTH</CENTER_NAME><REF_FRAME>TEME</REF_FRAME><TIME_SYSTEM>UTC</TIME_SYSTEM><MEAN_ELEMENT_THEORY>SGP4</MEAN_ELEMENT_THEORY></metadata><data><meanElements><EPOCH>2025-10-05T12:00:00.998784</EPOCH><MEAN_MOTION>15.26983852</MEAN_MOTION><ECCENTRICITY>.0005619</ECCENTRICITY><INCLINATION>51.8797</INCLINATION><RA_OF_ASC_NODE>256.0642</RA_OF_ASC_NODE><ARG_OF_PERICENTER>75.1761</ARG_OF_PERICENTER><MEAN_ANOMALY>291.8423</MEAN_ANOMALY></meanElements><tleParameters><EPHEMERIS_TYPE>0</EPHEMERIS_TYPE><CLASSIFICATION_TYPE>U</CLASSIFICATION_TYPE><NORAD_CAT_ID>64819</NORAD_CAT_ID><ELEMENT_SET_NO>999</ELEMENT_SET_NO><REV_AT_EPOCH>572</REV_AT_EPOCH><BSTAR>-.65238E-1</BSTAR><MEAN_MOTION_DOT>-.159618E-1</MEAN_MOTION_DOT><MEAN_MOTION_DDOT>0</MEAN_MOTION_DDOT></tleParameters></data></segment></body></omm>
<omm id="CCSDS_OMM_VERS" version="2.0">
<header><CREATION_DATE/><ORIGINATOR/></header><body><segment><metadata><OBJECT_NAME>KUIPER-00073</OBJECT_NAME><OBJECT_ID>2025-151E</OBJECT_ID><CENTER_NAME>EARTH</CENTER_NAME><REF_FRAME>TEME</REF_FRAME><TIME_SYSTEM>UTC</TIME_SYSTEM><MEAN_ELEMENT_THEORY>SGP4</MEAN_ELEMENT_THEORY></metadata><data><meanElements><EPOCH>2025-10-05T05:39:58.078368</EPOCH><MEAN_MOTION>14.79945550</MEAN_MOTION><ECCENTRICITY>.0013499</ECCENTRICITY><INCLINATION>51.8977</INCLINATION><RA_OF_ASC_NODE>270.4874</RA_OF_ASC_NODE><ARG_OF_PERICENTER>97.9386</ARG_OF_PERICENTER><MEAN_ANOMALY>262.3109</MEAN_ANOMALY></meanElements><tleParameters><EPHEMERIS_TYPE>0</EPHEMERIS_TYPE><CLASSIFICATION_TYPE>U</CLASSIFICATION_TYPE><NORAD_CAT_ID>64820</NORAD_CAT_ID><ELEMENT_SET_NO>999</ELEMENT_SET_NO><REV_AT_EPOCH>1343</REV_AT_EPOCH><BSTAR>-.1048E-3</BSTAR><MEAN_MOTION_DOT>-.1025E-4</MEAN_MOTION_DOT><MEAN_MOTION_DDOT>0</MEAN_MOTION_DDOT></tleParameters></data></segment></body></omm>
<omm id="CCSDS_OMM_VERS" version="2.0">
<header><CREATION_DATE/><ORIGINATOR/></header><body><segment><metadata><OBJECT_NAME>KUIPER-00074</OBJECT_NAME><OBJECT_ID>2025-151F</OBJECT_ID><CENTER_NAME>EARTH</CENTER_NAME><REF_FRAME>TEME</REF_FRAME><TIME_SYSTEM>UTC</TIME_SYSTEM><MEAN_ELEMENT_THEORY>SGP4</MEAN_ELEMENT_THEORY></metadata><data><meanElements><EPOCH>2025-10-05T12:00:00.998784</EPOCH><MEAN_MOTION>15.05452358</MEAN_MOTION><ECCENTRICITY>.0013385</ECCENTRICITY><INCLINATION>51.8880</INCLINATION><RA_OF_ASC_NODE>258.6058</RA_OF_ASC_NODE><ARG_OF_PERICENTER>106.4430</ARG_OF_PERICENTER><MEAN_ANOMALY>14.2403</MEAN_ANOMALY></meanElements><tleParameters><EPHEMERIS_TYPE>0</EPHEMERIS_TYPE><CLASSIFICATION_TYPE>U</CLASSIFICATION_TYPE><NORAD_CAT_ID>64821</NORAD_CAT_ID><ELEMENT_SET_NO>999</ELEMENT_SET_NO><REV_AT_EPOCH>539</REV_AT_EPOCH><BSTAR>.78408E-3</BSTAR><MEAN_MOTION_DOT>.11148E-3</MEAN_MOTION_DOT><MEAN_MOTION_DDOT>0</MEAN_MOTION_DDOT></tleParameters></data></segment></body></omm>
<omm id="CCSDS_OMM_VERS" version="2.0">
<header><CREATION_DATE/><ORIGINATOR/></header><body><segment><metadata><OBJECT_NAME>KUIPER-00075</OBJECT_NAME><OBJECT_ID>2025-151G</OBJECT_ID><CENTER_NAME>EARTH</CENTER_NAME><REF_FRAME>TEME</REF_FRAME><TIME_SYSTEM>UTC</TIME_SYSTEM><MEAN_ELEMENT_THEORY>SGP4</MEAN_ELEMENT_THEORY></metadata><data><meanElements><EPOCH>2025-10-05T05:28:17.972256</EPOCH><MEAN_MOTION>15.38436866</MEAN_MOTION><ECCENTRICITY>.0006389</ECCENTRICITY><INCLINATION>51.8755</INCLINATION><RA_OF_ASC_NODE>256.5174</RA_OF_ASC_NODE><ARG_OF_PERICENTER>66.6028</ARG_OF_PERICENTER><MEAN_ANOMALY>293.5631</MEAN_ANOMALY></meanElements><tleParameters><EPHEMERIS_TYPE>0</EPHEMERIS_TYPE><CLASSIFICATION_TYPE>U</CLASSIFICATION_TYPE><NORAD_CAT_ID>64822</NORAD_CAT_ID><ELEMENT_SET_NO>999</ELEMENT_SET_NO><REV_AT_EPOCH>1244</REV_AT_EPOCH><BSTAR>.65371E-3</BSTAR><MEAN_MOTION_DOT>.24878E-3</MEAN_MOTION_DOT><MEAN_MOTION_DDOT>0</MEAN_MOTION_DDOT></tleParameters></data></segment></body></omm>
<omm id="CCSDS_OMM_VERS" version="2.0">
<header><CREATION_DATE/><ORIGINATOR/></header><body><segment><metadata><OBJECT_NAME>KUIPER-00076</OBJECT_NAME><OBJECT_ID>2025-151H</OBJECT_ID><CENTER_NAME>EARTH</CENTER_NAME><REF_FRAME>TEME</REF_FRAME><TIME_SYSTEM>UTC</TIME_SYSTEM><MEAN_ELEMENT_THEORY>SGP4</MEAN_ELEMENT_THEORY></metadata><data><meanElements><EPOCH>2025-10-05T12:00:00.998784</EPOCH><MEAN_MOTION>14.98507903</MEAN_MOTION><ECCENTRICITY>.0005453</ECCENTRICITY><INCLINATION>51.8893</INCLINATION><RA_OF_ASC_NODE>260.1906</RA_OF_ASC_NODE><ARG_OF_PERICENTER>103.5672</ARG_OF_PERICENTER><MEAN_ANOMALY>60.2079</MEAN_ANOMALY></meanElements><tleParameters><EPHEMERIS_TYPE>0</EPHEMERIS_TYPE><CLASSIFICATION_TYPE>U</CLASSIFICATION_TYPE><NORAD_CAT_ID>64823</NORAD_CAT_ID><ELEMENT_SET_NO>999</ELEMENT_SET_NO><REV_AT_EPOCH>466</REV_AT_EPOCH><BSTAR>-.1238E+0</BSTAR><MEAN_MOTION_DOT>-.1374389E-1</MEAN_MOTION_DOT><MEAN_MOTION_DDOT>0</MEAN_MOTION_DDOT></tleParameters></data></segment></body></omm>
<omm id="CCSDS_OMM_VERS" version="2.0">
<header><CREATION_DATE/><ORIGINATOR/></header><body><segment><metadata><OBJECT_NAME>KUIPER-00077</OBJECT_NAME><OBJECT_ID>2025-151J</OBJECT_ID><CENTER_NAME>EARTH</CENTER_NAME><REF_FRAME>TEME</REF_FRAME><TIME_SYSTEM>UTC</TIME_SYSTEM><MEAN_ELEMENT_THEORY>SGP4</MEAN_ELEMENT_THEORY></metadata><data><meanElements><EPOCH>2025-10-05T12:00:00.998784</EPOCH><MEAN_MOTION>14.82109115</MEAN_MOTION><ECCENTRICITY>.0005928</ECCENTRICITY><INCLINATION>51.8987</INCLINATION><RA_OF_ASC_NODE>264.3404</RA_OF_ASC_NODE><ARG_OF_PERICENTER>53.2880</ARG_OF_PERICENTER><MEAN_ANOMALY>234.1619</MEAN_ANOMALY></meanElements><tleParameters><EPHEMERIS_TYPE>0</EPHEMERIS_TYPE><CLASSIFICATION_TYPE>U</CLASSIFICATION_TYPE><NORAD_CAT_ID>64824</NORAD_CAT_ID><ELEMENT_SET_NO>999</ELEMENT_SET_NO><REV_AT_EPOCH>524</REV_AT_EPOCH><BSTAR>.42518E-3</BSTAR><MEAN_MOTION_DOT>.319E-4</MEAN_MOTION_DOT><MEAN_MOTION_DDOT>0</MEAN_MOTION_DDOT></tleParameters></data></segment></body></omm>
<omm id="CCSDS_OMM_VERS" version="2.0">
<header><CREATION_DATE/><ORIGINATOR/></header><body><segment><metadata><OBJECT_NAME>KUIPER-00078</OBJECT_NAME><OBJECT_ID>2025-151K</OBJECT_ID><CENTER_NAME>EARTH</CENTER_NAME><REF_FRAME>TEME</REF_FRAME><TIME_SYSTEM>UTC</TIME_SYSTEM><MEAN_ELEMENT_THEORY>SGP4</MEAN_ELEMENT_THEORY></metadata><data><meanElements><EPOCH>2025-10-05T12:00:00.998784</EPOCH><MEAN_MOTION>14.90030295</MEAN_MOTION><ECCENTRICITY>.0007305</ECCENTRICITY><INCLINATION>51.8934</INCLINATION><RA_OF_ASC_NODE>262.1108</RA_OF_ASC_NODE><ARG_OF_PERICENTER>130.6273</ARG_OF_PERICENTER><MEAN_ANOMALY>172.4844</MEAN_ANOMALY></meanElements><tleParameters><EPHEMERIS_TYPE>0</EPHEMERIS_TYPE><CLASSIFICATION_TYPE>U</CLASSIFICATION_TYPE><NORAD_CAT_ID>64825</NORAD_CAT_ID><ELEMENT_SET_NO>999</ELEMENT_SET_NO><REV_AT_EPOCH>575</REV_AT_EPOCH><BSTAR>.57351E-3</BSTAR><MEAN_MOTION_DOT>.5354E-4</MEAN_MOTION_DOT><MEAN_MOTION_DDOT>0</MEAN_MOTION_DDOT></tleParameters></data></segment></body></omm>

</ndm>
