KUIPER-00071            
1 64818U 25151C   25278.20227604  .00005852  00000+0  79548-3 0  9993
2 64818  51.8982 270.6356 0008313  77.1536 283.0355 14.79951777 12247
KUIPER-00072            
1 64819U 25151D   25278.50001156 -.01596180  00000+0 -65238-1 0  9990
2 64819  51.8797 256.0642 0005619  75.1761 291.8423 15.26983852  5722
KUIPER-00073            
1 64820U 25151E   25278.23608887 -.00001025  00000+0 -10480-3 0  9995
2 64820  51.8977 270.4874 0013499  97.9386 262.3109 14.79945550 13432
KUIPER-00074            
1 64821U 25151F   25278.50001156  .00011148  00000+0  78408-3 0  9991
2 64821  51.8880 258.6058 0013385 106.4430  14.2403 15.05452358  5394
KUIPER-00075            
1 64822U 25151G   25278.22798579  .00024878  00000+0  65371-3 0  9992
2 64822  51.8755 256.5174 0006389  66.6028 293.5631 15.38436866 12449
KUIPER-00076            
1 64823U 25151H   25278.50001156 -.01374389  00000+0 -12380+0 0  9998
2 64823  51.8893 260.1906 0005453 103.5672  60.2079 14.98507903  4660
KUIPER-00077            
1 64824U 25151J   25278.50001156  .00003190  00000+0  42518-3 0  9995
2 64824  51.8987 264.3404 0005928  53.2880 234.1619 14.82109115  5246
KUIPER-00078            
1 64825U 25151K   25278.50001156  .00005354  00000+0  57351-3 0  9991
2 64825  51.8934 262.1108 0007305 130.6273 172.4844 14.90030295  5754
